{
  "type": "FeatureCollection",
  "features": [
    {
      "type": "Feature",
      "properties": {
        "norad_id": 45358,
        "name": "COSMOS 2545 (760)",
        "group": "gnss",
        "lat": -41.95987732115299,
        "lon": -66.29198095220609,
        "alt_km": 19121.57266489795,
        "timestamp": "2025-12-07T05:38:10.148273+00:00",
        "meta_object_name": "COSMOS 2545 (760)",
        "meta_object_id": "2020-018A",
        "meta_epoch": "2025-12-01T04:43:25.038912",
        "meta_mean_motion": 2.13102323,
        "meta_eccentricity": 0.00119194,
        "meta_inclination": 64.4762,
        "meta_ra_of_asc_node": 319.3749,
        "meta_arg_of_pericenter": 248.338,
        "meta_mean_anomaly": 111.5456,
        "meta_ephemeris_type": 0,
        "meta_classification_type": "U",
        "meta_norad_cat_id": 45358,
        "meta_element_set_no": 999,
        "meta_rev_at_epoch": 4444,
        "meta_bstar": 0,
        "meta_mean_motion_dot": -2.8e-07,
        "meta_mean_motion_ddot": 0,
        "tle_line1": "1 45358U 20018A   25335.19681758 -.00000028  00000+0  00000+0 0  9998",
        "tle_line2": "2 45358  64.4762 319.3749 0011919 248.3380 111.5456  2.13102323 44447"
      },
      "geometry": {
        "type": "Point",
        "coordinates": [
          -66.29198095220609,
          -41.95987732115299
        ]
      }
    },
    {
      "type": "Feature",
      "properties": {
        "norad_id": 45807,
        "name": "BEIDOU-3 G3 (C61)",
        "group": "gnss",
        "lat": -0.8467544940940258,
        "lon": -88.83919444645579,
        "alt_km": 35791.65294611124,
        "timestamp": "2025-12-07T05:38:10.148285+00:00",
        "meta_object_name": "BEIDOU-3 G3 (C61)",
        "meta_object_id": "2020-040A",
        "meta_epoch": "2025-12-06T07:20:33.413856",
        "meta_mean_motion": 1.00265154,
        "meta_eccentricity": 0.00051448,
        "meta_inclination": 1.9748,
        "meta_ra_of_asc_node": 66.5612,
        "meta_arg_of_pericenter": 303.6231,
        "meta_mean_anomaly": 285.7573,
        "meta_ephemeris_type": 0,
        "meta_classification_type": "U",
        "meta_norad_cat_id": 45807,
        "meta_element_set_no": 999,
        "meta_rev_at_epoch": 2013,
        "meta_bstar": 0,
        "meta_mean_motion_dot": -3.46e-06,
        "meta_mean_motion_ddot": 0,
        "tle_line1": "1 45807U 20040A   25340.30594229 -.00000346  00000+0  00000+0 0  9990",
        "tle_line2": "2 45807   1.9748  66.5612 0005144 303.6231 285.7573  1.00265154 20130"
      },
      "geometry": {
        "type": "Point",
        "coordinates": [
          -88.83919444645579,
          -0.8467544940940258
        ]
      }
    },
    {
      "type": "Feature",
      "properties": {
        "norad_id": 45854,
        "name": "GPS BIII-3  (PRN 23)",
        "group": "gnss",
        "lat": -24.493410143561892,
        "lon": 18.902625330024513,
        "alt_km": 20281.50689399685,
        "timestamp": "2025-12-07T05:38:10.148296+00:00",
        "meta_object_name": "GPS BIII-3  (PRN 23)",
        "meta_object_id": "2020-041A",
        "meta_epoch": "2025-12-06T06:48:20.878272",
        "meta_mean_motion": 2.00561679,
        "meta_eccentricity": 0.00603304,
        "meta_inclination": 56.5425,
        "meta_ra_of_asc_node": 36.4371,
        "meta_arg_of_pericenter": 203.1563,
        "meta_mean_anomaly": 159.699,
        "meta_ephemeris_type": 0,
        "meta_classification_type": "U",
        "meta_norad_cat_id": 45854,
        "meta_element_set_no": 999,
        "meta_rev_at_epoch": 4017,
        "meta_bstar": 0,
        "meta_mean_motion_dot": -7e-07,
        "meta_mean_motion_ddot": 0,
        "tle_line1": "1 45854U 20041A   25340.28357498 -.00000070  00000+0  00000+0 0  9999",
        "tle_line2": "2 45854  56.5425  36.4371 0060330 203.1563 159.6990  2.00561679 40178"
      },
      "geometry": {
        "type": "Point",
        "coordinates": [
          18.902625330024513,
          -24.493410143561892
        ]
      }
    },
    {
      "type": "Feature",
      "properties": {
        "norad_id": 46114,
        "name": "GALAXY 30 (WAAS/PRN 135)",
        "group": "gnss",
        "lat": 0.032173364846058344,
        "lon": 35.80882905640749,
        "alt_km": 35794.76117211165,
        "timestamp": "2025-12-07T05:38:10.148307+00:00",
        "meta_object_name": "GALAXY 30 (WAAS/PRN 135)",
        "meta_object_id": "2020-056C",
        "meta_epoch": "2025-12-06T13:09:03.573792",
        "meta_mean_motion": 1.00270345,
        "meta_eccentricity": 0.00024789,
        "meta_inclination": 0.0154,
        "meta_ra_of_asc_node": 344.878,
        "meta_arg_of_pericenter": 268.4209,
        "meta_mean_anomaly": 254.5503,
        "meta_ephemeris_type": 0,
        "meta_classification_type": "U",
        "meta_norad_cat_id": 46114,
        "meta_element_set_no": 999,
        "meta_rev_at_epoch": 1936,
        "meta_bstar": 0,
        "meta_mean_motion_dot": 4.4e-07,
        "meta_mean_motion_ddot": 0,
        "tle_line1": "1 46114U 20056C   25340.54795803  .00000044  00000+0  00000+0 0  9990",
        "tle_line2": "2 46114   0.0154 344.8780 0002478 268.4209 254.5503  1.00270345 19369"
      },
      "geometry": {
        "type": "Point",
        "coordinates": [
          35.80882905640749,
          0.032173364846058344
        ]
      }
    },
    {
      "type": "Feature",
      "properties": {
        "norad_id": 46805,
        "name": "COSMOS 2547 (705K)",
        "group": "gnss",
        "lat": 10.957447080586526,
        "lon": 13.604624446157098,
        "alt_km": 19121.479850284177,
        "timestamp": "2025-12-07T05:38:10.148318+00:00",
        "meta_object_name": "COSMOS 2547 (705K)",
        "meta_object_id": "2020-075A",
        "meta_epoch": "2025-12-04T04:48:34.576416",
        "meta_mean_motion": 2.13099889,
        "meta_eccentricity": 0.0006264,
        "meta_inclination": 64.5958,
        "meta_ra_of_asc_node": 198.9817,
        "meta_arg_of_pericenter": 229.2044,
        "meta_mean_anomaly": 130.8379,
        "meta_ephemeris_type": 0,
        "meta_classification_type": "U",
        "meta_norad_cat_id": 46805,
        "meta_element_set_no": 999,
        "meta_rev_at_epoch": 3975,
        "meta_bstar": 0,
        "meta_mean_motion_dot": 1.01e-06,
        "meta_mean_motion_ddot": 0,
        "tle_line1": "1 46805U 20075A   25338.20040019  .00000101  00000+0  00000+0 0  9994",
        "tle_line2": "2 46805  64.5958 198.9817 0006264 229.2044 130.8379  2.13099889 39750"
      },
      "geometry": {
        "type": "Point",
        "coordinates": [
          13.604624446157098,
          10.957447080586526
        ]
      }
    },
    {
      "type": "Feature",
      "properties": {
        "norad_id": 46826,
        "name": "GPS BIII-4  (PRN 14)",
        "group": "gnss",
        "lat": -43.805201893853926,
        "lon": 174.43572220397039,
        "alt_km": 20206.763651238194,
        "timestamp": "2025-12-07T05:38:10.148329+00:00",
        "meta_object_name": "GPS BIII-4  (PRN 14)",
        "meta_object_id": "2020-078A",
        "meta_epoch": "2025-11-12T03:01:29.191584",
        "meta_mean_motion": 2.00567032,
        "meta_eccentricity": 0.00639112,
        "meta_inclination": 54.0223,
        "meta_ra_of_asc_node": 219.5836,
        "meta_arg_of_pericenter": 203.4986,
        "meta_mean_anomaly": 326.7753,
        "meta_ephemeris_type": 0,
        "meta_classification_type": "U",
        "meta_norad_cat_id": 46826,
        "meta_element_set_no": 999,
        "meta_rev_at_epoch": 3715,
        "meta_bstar": 0,
        "meta_mean_motion_dot": -3.4e-07,
        "meta_mean_motion_ddot": 0,
        "tle_line1": "1 46826U 20078A   25316.12603231 -.00000034  00000+0  00000+0 0  9994",
        "tle_line2": "2 46826  54.0223 219.5836 0063911 203.4986 326.7753  2.00567032 37154"
      },
      "geometry": {
        "type": "Point",
        "coordinates": [
          174.43572220397039,
          -43.805201893853926
        ]
      }
    },
    {
      "type": "Feature",
      "properties": {
        "norad_id": 48859,
        "name": "GPS BIII-5  (PRN 11)",
        "group": "gnss",
        "lat": 41.69665016224415,
        "lon": 121.98448789189749,
        "alt_km": 20197.355407785897,
        "timestamp": "2025-12-07T05:38:10.148344+00:00",
        "meta_object_name": "GPS BIII-5  (PRN 11)",
        "meta_object_id": "2021-054A",
        "meta_epoch": "2025-11-30T17:12:22.002912",
        "meta_mean_motion": 2.00553932,
        "meta_eccentricity": 0.0024653,
        "meta_inclination": 55.2606,
        "meta_ra_of_asc_node": 340.4377,
        "meta_arg_of_pericenter": 232.9477,
        "meta_mean_anomaly": 227.2059,
        "meta_ephemeris_type": 0,
        "meta_classification_type": "U",
        "meta_norad_cat_id": 48859,
        "meta_element_set_no": 999,
        "meta_rev_at_epoch": 3277,
        "meta_bstar": 0,
        "meta_mean_motion_dot": -5.5e-07,
        "meta_mean_motion_ddot": 0,
        "tle_line1": "1 48859U 21054A   25334.71692133 -.00000055  00000+0  00000+0 0  9994",
        "tle_line2": "2 48859  55.2606 340.4377 0024653 232.9477 227.2059  2.00553932 32777"
      },
      "geometry": {
        "type": "Point",
        "coordinates": [
          121.98448789189749,
          41.69665016224415
        ]
      }
    }
  ]
}